{
    "links": {
        "self": "http://www.neowsapp.com/rest/v1/neo/3696455?api_key=iIulBulltgU6a56xZRHN4H3l9WmuAYTsLGpBGhQ2"
    },
    "id": "3696455",
    "neo_reference_id": "3696455",
    "name": "(2014 WK7)",
    "designation": "2014 WK7",
    "nasa_jpl_url": "http://ssd.jpl.nasa.gov/sbdb.cgi?sstr=3696455",
    "absolute_magnitude_h": 22.4,
    "estimated_diameter": {
        "kilometers": {
            "estimated_diameter_min": 0.0880146521,
            "estimated_diameter_max": 0.1968067451
        },
        "meters": {
            "estimated_diameter_min": 88.0146520901,
            "estimated_diameter_max": 196.8067450894
        },
        "miles": {
            "estimated_diameter_min": 0.0546897524,
            "estimated_diameter_max": 0.122290004
        },
        "feet": {
            "estimated_diameter_min": 288.7619911632,
            "estimated_diameter_max": 645.6914415591
        }
    },
    "is_potentially_hazardous_asteroid": false,
    "close_approach_data": [
        {
            "close_approach_date": "2012-12-11",
            "close_approach_date_full": "2012-Dec-11 14:54",
            "epoch_date_close_approach": 1355237640000,
            "relative_velocity": {
                "kilometers_per_second": "18.6828306271",
                "kilometers_per_hour": "67258.1902574437",
                "miles_per_hour": "41791.6238296877"
            },
            "miss_distance": {
                "astronomical": "0.3808855148",
                "lunar": "148.1644652572",
                "kilometers": "56979661.727933476",
                "miles": "35405520.0219589288"
            },
            "orbiting_body": "Earth"
        },
        {
            "close_approach_date": "2014-11-18",
            "close_approach_date_full": "2014-Nov-18 08:55",
            "epoch_date_close_approach": 1416300900000,
            "relative_velocity": {
                "kilometers_per_second": "14.2379745937",
                "kilometers_per_hour": "51256.7085374028",
                "miles_per_hour": "31848.925368699"
            },
            "miss_distance": {
                "astronomical": "0.0291316437",
                "lunar": "11.3322093993",
                "kilometers": "4358031.847118919",
                "miles": "2707955.4202383222"
            },
            "orbiting_body": "Earth"
        },
        {
            "close_approach_date": "2016-10-25",
            "close_approach_date_full": "2016-Oct-25 11:44",
            "epoch_date_close_approach": 1477395840000,
            "relative_velocity": {
                "kilometers_per_second": "16.8954120822",
                "kilometers_per_hour": "60823.4834960122",
                "miles_per_hour": "37793.3472867304"
            },
            "miss_distance": {
                "astronomical": "0.3008008664",
                "lunar": "117.0115370296",
                "kilometers": "44999168.907594568",
                "miles": "27961186.9817103184"
            },
            "orbiting_body": "Earth"
        }
    ],
    "orbital_data": {
        "orbit_id": "9",
        "orbit_determination_date": "2017-04-06 08:37:25",
        "first_observation_date": "2014-11-18",
        "last_observation_date": "2014-12-03",
        "data_arc_in_days": 15,
        "observations_used": 95,
        "orbit_uncertainty": "7",
        "minimum_orbit_intersection": ".00935636",
        "jupiter_tisserand_invariant": "4.270",
        "epoch_osculation": "2459000.5",
        "eccentricity": ".3602596242642199",
        "semi_major_axis": "1.559597006540448",
        "inclination": "23.90132090107288",
        "ascending_node_longitude": "233.7650099069964",
        "orbital_period": "711.4051688009446",
        "perihelion_distance": ".9977371749605842",
        "perihelion_argument": "180.8986051050786",
        "aphelion_distance": "2.121456838120312",
        "perihelion_time": "2459114.731271842216",
        "mean_anomaly": "302.1943223542921",
        "mean_motion": ".5060407427272013",
        "equinox": "J2000",
        "orbit_class": {
            "orbit_class_type": "APO",
            "orbit_class_description": "Near-Earth asteroid orbits which cross the Earth’s orbit similar to that of 1862 Apollo",
            "orbit_class_range": "a (semi-major axis) > 1.0 AU; q (perihelion) < 1.017 AU"
        }
    },
    "is_sentry_object": false
}